OBJECT_NAME,OBJECT_ID,EPOCH,MEAN_MOTION,ECCENTRICITY,INCLINATION,RA_OF_ASC_NODE,ARG_OF_PERICENTER,MEAN_ANOMALY,EPHEMERIS_TYPE,CLASSIFICATION_TYPE,NORAD_CAT_ID,ELEMENT_SET_NO,REV_AT_EPOCH,BSTAR,MEAN_MOTION_DOT,MEAN_MOTION_DDOT
ONEWEB-0012,2019-010A,2026-06-05T11:22:03.326304,13.16593960,.00021463,87.9104,231.1108,87.6586,272.4791,0,U,44057,999,35002,-.10539987E-3,-.27E-6,0
ONEWEB-0010,2019-010B,2026-06-05T22:55:08.613984,13.16594026,.0001707,87.9100,231.0112,104.8506,255.2814,0,U,44058,999,35013,.26514E-3,.114E-5,0
ONEWEB-0008,2019-010C,2026-06-05T10:45:34.841952,13.16595659,.00022677,87.9102,231.1066,103.6818,256.4565,0,U,44059,999,35018,.19131426E-3,.86E-6,0
ONEWEB-0007,2019-010D,2026-06-05T20:30:19.054080,13.15547504,.0001703,87.9006,261.4789,94.0537,266.0788,0,U,44060,999,34988,-.48944E-3,-.171E-5,0
ONEWEB-0006,2019-010E,2026-06-05T07:49:21.000000,13.15547718,.00018175,87.9024,261.5466,102.4417,257.6917,0,U,44061,999,34986,-.49145971E-3,-.172E-5,0
ONEWEB-0011,2019-010F,2026-06-05T19:50:22.790688,13.15550701,.0001871,87.9011,261.4570,106.3566,253.7770,0,U,44062,999,34992,.34929E-3,.144E-5,0
ONEWEB-0013,2020-008A,2026-06-04T06:09:33.091200,13.09453687,.00027254,87.8524,55.4326,64.8340,295.3069,0,U,45131,999,30437,.18150373E-2,.638E-5,0
ONEWEB-0017,2020-008B,2026-06-05T09:26:26.421504,13.10373147,.00014848,87.8859,38.6142,81.0132,279.1164,0,U,45132,999,30640,-.16708207E-2,-.571E-5,0
ONEWEB-0020,2020-008C,2026-06-05T08:43:27.156000,13.10370650,.00017894,87.8839,38.6225,85.8307,274.3025,0,U,45133,999,30679,.12313657E-2,.443E-5,0
ONEWEB-0021,2020-008D,2026-06-05T09:04:56.558496,13.10370316,.00017862,87.8841,38.6343,76.4697,283.6630,0,U,45134,999,30710,-.50594508E-3,-.164E-5,0
ONEWEB-0023,2020-008F,2026-06-05T02:00:39.100032,13.10372522,.0001952,87.8853,38.6737,82.7681,277.3668,0,U,45136,999,30649,-.1902E-2,-.651E-5,0
ONEWEB-0024,2020-008G,2026-06-05T23:20:53.993760,13.10370431,.0001762,87.8849,38.4902,81.6754,278.4573,0,U,45137,999,30677,.15347E-2,.548E-5,0
ONEWEB-0025,2020-008H,2026-06-05T23:20:30.215616,13.10370742,.0002061,87.8852,38.4795,95.0058,265.1305,0,U,45138,999,30710,.13214E-2,.474E-5,0
ONEWEB-0026,2020-008J,2026-06-05T07:58:52.983552,13.11415592,.00017103,87.8894,23.4283,89.5130,270.6194,0,U,45139,999,30955,-.2487992E-3,-.75E-6,0
ONEWEB-0028,2020-008K,2026-06-05T09:11:42.215136,13.10853984,.00022037,87.8897,23.4262,72.3331,287.8037,0,U,45140,999,30707,.17178761E-2,.617E-5,0
ONEWEB-0032,2020-008L,2026-06-05T09:29:01.940640,13.10373197,.00022477,87.8839,38.6199,75.0378,285.0999,0,U,45141,999,30675,-.17686258E-2,-.605E-5,0
ONEWEB-0033,2020-008M,2026-06-05T08:52:59.952576,13.10370051,.0001372,87.8837,38.6309,92.2021,267.9263,0,U,45142,999,30666,.65422223E-3,.241E-5,0
ONEWEB-0035,2020-008N,2026-06-05T09:21:53.025984,13.10372783,.00017253,87.8843,38.6212,85.1293,275.0032,0,U,45143,999,30639,-.19152217E-2,-.656E-5,0
ONEWEB-0036,2020-008P,2026-06-05T23:20:36.965184,13.09819667,.0001996,87.8856,38.5123,79.2325,280.9027,0,U,45144,999,30689,.17257E-2,.61E-5,0
ONEWEB-0038,2020-008Q,2026-06-05T08:13:43.622400,13.11415237,.00013259,87.8913,23.4330,20.7558,339.3624,0,U,45145,999,30877,-.12669234E-2,-.436E-5,0
ONEWEB-0039,2020-008R,2026-06-05T08:57:47.199744,13.10371966,.00020967,87.8843,38.6204,67.9199,292.2151,0,U,45146,999,30661,-.17324398E-3,-.48E-6,0
ONEWEB-0040,2020-008S,2026-06-05T08:48:13.586688,13.10370453,.00017369,87.8837,38.6328,77.5077,282.6244,0,U,45147,999,30631,.10594762E-2,.382E-5,0
ONEWEB-0043,2020-008U,2026-06-05T08:50:37.269024,13.10370398,.0002221,87.8842,38.6197,71.8512,288.2857,0,U,45149,999,30663,.67301403E-3,.248E-5,0
ONEWEB-0044,2020-008V,2026-06-05T09:31:13.476000,13.10373839,.00017633,87.8867,38.6106,74.6617,285.4705,0,U,45150,999,30693,-.17580612E-2,-.601E-5,0
ONEWEB-0045,2020-008W,2026-06-05T08:06:12.616992,13.11415426,.00018041,87.8906,23.4171,80.5623,279.5709,0,U,45151,999,30885,-.68934879E-3,-.232E-5,0
ONEWEB-0047,2020-008X,2026-06-05T09:21:28.482336,13.10372569,.00015796,87.8849,38.6145,78.4636,281.6668,0,U,45152,999,30665,-.17088953E-2,-.584E-5,0
ONEWEB-0048,2020-008Y,2026-06-05T09:14:29.888160,13.10371089,.00017373,87.8841,38.6381,81.9460,278.1864,0,U,45153,999,30626,-.14217181E-2,-.484E-5,0
ONEWEB-0049,2020-008Z,2026-06-05T01:59:15.876096,13.10371882,.0002221,87.8842,38.6881,84.7558,275.3823,0,U,45154,999,30644,-.19531E-2,-.669E-5,0
ONEWEB-0051,2020-008AA,2026-06-05T08:03:46.896480,13.11414899,.00018168,87.8897,23.4259,84.1157,276.0178,0,U,45155,999,30953,-.52082521E-3,-.172E-5,0
ONEWEB-0052,2020-008AB,2026-06-04T17:18:35.187840,13.10377080,.00022236,87.8853,38.7452,87.4727,272.6654,0,U,45156,999,30630,-.20408294E-3,-.59E-6,0
