[
  {
    "name": "ONEWEB-0012",
    "noradId": "44057",
    "line1": "1 44057U 19010A   26156.47364961 -.00000027  00000+0 -10540-3 0  9994",
    "line2": "2 44057  87.9104 231.1108 0002146  87.6586 272.4791 13.16593960350025"
  },
  {
    "name": "ONEWEB-0010",
    "noradId": "44058",
    "line1": "1 44058U 19010B   26156.95496082  .00000114  00000+0  26514-3 0  9991",
    "line2": "2 44058  87.9100 231.0112 0001706 104.8506 255.2814 13.16594026350132"
  },
  {
    "name": "ONEWEB-0008",
    "noradId": "44059",
    "line1": "1 44059U 19010C   26156.44831993  .00000086  00000+0  19131-3 0  9995",
    "line2": "2 44059  87.9102 231.1066 0002267 103.6818 256.4565 13.16595659350184"
  },
  {
    "name": "ONEWEB-0007",
    "noradId": "44060",
    "line1": "1 44060U 19010D   26156.85438720 -.00000171  00000+0 -48944-3 0  9994",
    "line2": "2 44060  87.9006 261.4789 0001703  94.0537 266.0788 13.15547504349886"
  },
  {
    "name": "ONEWEB-0006",
    "noradId": "44061",
    "line1": "1 44061U 19010E   26156.32593750 -.00000172  00000+0 -49146-3 0  9998",
    "line2": "2 44061  87.9024 261.5466 0001817 102.4417 257.6917 13.15547718349862"
  },
  {
    "name": "ONEWEB-0011",
    "noradId": "44062",
    "line1": "1 44062U 19010F   26156.82665268  .00000144  00000+0  34929-3 0  9998",
    "line2": "2 44062  87.9011 261.4570 0001871 106.3566 253.7770 13.15550701349929"
  },
  {
    "name": "ONEWEB-0013",
    "noradId": "45131",
    "line1": "1 45131U 20008A   26155.25663300  .00000638  00000+0  18150-2 0  9991",
    "line2": "2 45131  87.8524  55.4326 0002725  64.8340 295.3069 13.09453687304373"
  },
  {
    "name": "ONEWEB-0017",
    "noradId": "45132",
    "line1": "1 45132U 20008B   26156.39336136 -.00000571  00000+0 -16708-2 0  9997",
    "line2": "2 45132  87.8859  38.6142 0001484  81.0132 279.1164 13.10373147306401"
  },
  {
    "name": "ONEWEB-0020",
    "noradId": "45133",
    "line1": "1 45133U 20008C   26156.36350875  .00000443  00000+0  12314-2 0  9996",
    "line2": "2 45133  87.8839  38.6225 0001789  85.8307 274.3025 13.10370650306797"
  },
  {
    "name": "ONEWEB-0021",
    "noradId": "45134",
    "line1": "1 45134U 20008D   26156.37843239 -.00000164  00000+0 -50595-3 0  9995",
    "line2": "2 45134  87.8841  38.6343 0001786  76.4697 283.6630 13.10370316307107"
  },
  {
    "name": "ONEWEB-0023",
    "noradId": "45136",
    "line1": "1 45136U 20008F   26156.08378588 -.00000651  00000+0 -19020-2 0  9993",
    "line2": "2 45136  87.8853  38.6737 0001952  82.7681 277.3668 13.10372522306490"
  },
  {
    "name": "ONEWEB-0024",
    "noradId": "45137",
    "line1": "1 45137U 20008G   26156.97284716  .00000548  00000+0  15347-2 0  9992",
    "line2": "2 45137  87.8849  38.4902 0001761  81.6754 278.4573 13.10370431306770"
  },
  {
    "name": "ONEWEB-0025",
    "noradId": "45138",
    "line1": "1 45138U 20008H   26156.97257195  .00000474  00000+0  13214-2 0  9993",
    "line2": "2 45138  87.8852  38.4795 0002061  95.0058 265.1305 13.10370742307104"
  },
  {
    "name": "ONEWEB-0026",
    "noradId": "45139",
    "line1": "1 45139U 20008J   26156.33255768 -.00000075  00000+0 -24880-3 0  9999",
    "line2": "2 45139  87.8894  23.4283 0001710  89.5130 270.6194 13.11415592309558"
  },
  {
    "name": "ONEWEB-0028",
    "noradId": "45140",
    "line1": "1 45140U 20008K   26156.38312749  .00000617  00000+0  17179-2 0  9991",
    "line2": "2 45140  87.8897  23.4262 0002203  72.3331 287.8037 13.10853984307072"
  },
  {
    "name": "ONEWEB-0032",
    "noradId": "45141",
    "line1": "1 45141U 20008L   26156.39516135 -.00000605  00000+0 -17686-2 0  9990",
    "line2": "2 45141  87.8839  38.6199 0002247  75.0378 285.0999 13.10373197306759"
  },
  {
    "name": "ONEWEB-0033",
    "noradId": "45142",
    "line1": "1 45142U 20008M   26156.37013834  .00000241  00000+0  65422-3 0  9993",
    "line2": "2 45142  87.8837  38.6309 0001372  92.2021 267.9263 13.10370051306664"
  },
  {
    "name": "ONEWEB-0035",
    "noradId": "45143",
    "line1": "1 45143U 20008N   26156.39019706 -.00000656  00000+0 -19152-2 0  9990",
    "line2": "2 45143  87.8843  38.6212 0001725  85.1293 275.0032 13.10372783306397"
  },
  {
    "name": "ONEWEB-0036",
    "noradId": "45144",
    "line1": "1 45144U 20008P   26156.97265006  .00000610  00000+0  17257-2 0  9993",
    "line2": "2 45144  87.8856  38.5123 0001995  79.2325 280.9027 13.09819667306890"
  },
  {
    "name": "ONEWEB-0038",
    "noradId": "45145",
    "line1": "1 45145U 20008Q   26156.34286600 -.00000436  00000+0 -12669-2 0  9998",
    "line2": "2 45145  87.8913  23.4330 0001325  20.7558 339.3624 13.11415237308773"
  },
  {
    "name": "ONEWEB-0039",
    "noradId": "45146",
    "line1": "1 45146U 20008R   26156.37346296 -.00000048  00000+0 -17324-3 0  9993",
    "line2": "2 45146  87.8843  38.6204 0002096  67.9199 292.2151 13.10371966306616"
  },
  {
    "name": "ONEWEB-0040",
    "noradId": "45147",
    "line1": "1 45147U 20008S   26156.36682392  .00000382  00000+0  10595-2 0  9994",
    "line2": "2 45147  87.8837  38.6328 0001736  77.5077 282.6244 13.10370453306312"
  },
  {
    "name": "ONEWEB-0043",
    "noradId": "45149",
    "line1": "1 45149U 20008U   26156.36848691  .00000248  00000+0  67301-3 0  9991",
    "line2": "2 45149  87.8842  38.6197 0002221  71.8512 288.2857 13.10370398306630"
  },
  {
    "name": "ONEWEB-0044",
    "noradId": "45150",
    "line1": "1 45150U 20008V   26156.39668375 -.00000601  00000+0 -17581-2 0  9994",
    "line2": "2 45150  87.8867  38.6106 0001763  74.6617 285.4705 13.10373839306933"
  },
  {
    "name": "ONEWEB-0045",
    "noradId": "45151",
    "line1": "1 45151U 20008W   26156.33764603 -.00000232  00000+0 -68935-3 0  9990",
    "line2": "2 45151  87.8906  23.4171 0001804  80.5623 279.5709 13.11415426308852"
  },
  {
    "name": "ONEWEB-0047",
    "noradId": "45152",
    "line1": "1 45152U 20008X   26156.38991299 -.00000584  00000+0 -17089-2 0  9992",
    "line2": "2 45152  87.8849  38.6145 0001579  78.4636 281.6668 13.10372569306650"
  },
  {
    "name": "ONEWEB-0048",
    "noradId": "45153",
    "line1": "1 45153U 20008Y   26156.38506815 -.00000484  00000+0 -14217-2 0  9998",
    "line2": "2 45153  87.8841  38.6381 0001737  81.9460 278.1864 13.10371089306267"
  },
  {
    "name": "ONEWEB-0049",
    "noradId": "45154",
    "line1": "1 45154U 20008Z   26156.08282264 -.00000669  00000+0 -19531-2 0  9994",
    "line2": "2 45154  87.8842  38.6881 0002221  84.7558 275.3823 13.10371882306447"
  },
  {
    "name": "ONEWEB-0051",
    "noradId": "45155",
    "line1": "1 45155U 20008AA  26156.33595945 -.00000172  00000+0 -52083-3 0  9995",
    "line2": "2 45155  87.8897  23.4259 0001816  84.1157 276.0178 13.11414899309538"
  },
  {
    "name": "ONEWEB-0052",
    "noradId": "45156",
    "line1": "1 45156U 20008AB  26155.72124060 -.00000059  00000+0 -20408-3 0  9994",
    "line2": "2 45156  87.8853  38.7452 0002223  87.4727 272.6654 13.10377080306309"
  }
]